{
  "type": "FeatureCollection",
  "features": [
    {
      "type": "Feature",
      "properties": {},
      "geometry": {
        "type": "Polygon",
        "coordinates": [
          [
            [
              -46.5581204,
              -23.4333945
            ],
            [
              -46.4193859,
              -23.4091462
            ],
            [
              -46.383245,
              -23.519654
            ],
            [
              -46.5608407,
              -23.5474446
            ],
            [
              -46.6043653,
              -23.4861549
            ],
            [
              -46.5744421,
              -23.4530039
            ],
            [
              -46.5740535,
              -23.4505083
            ],
            [
              -46.5581204,
              -23.4333945
            ]
          ]
        ]
      }
    }
  ]
}
